CRE (WAAS/PRN 138)      
1 28868U 05036A   22301.55152866 -.00000065  00000+0  00000+0 0  9992
2 28868   0.8930  92.2716 0001700  70.1691 325.7054  1.00271624 33143
IOR-W (EGNOS/PRN 126)   
1 28899U 05044A   22301.76535233  .00000018  00000+0  00000+0 0  9998
2 28899   3.6060  38.5084 0002625 183.6071 154.4276  1.00272679 62205
QZS-1 (QZSS/PRN 183)    
1 37158U 10045A   22301.85882988 -.00000076  00000+0  00000+0 0  9990
2 37158  42.4727 131.5459 0748404 270.2646  82.5446  1.00275590 44404
GSAT-8 (GAGAN/PRN 127)  
1 37605U 11022A   22301.75720361  .00000093  00000+0  00000+0 0  9996
2 37605   0.0350 100.9291 0007256 146.7245 117.1112  1.00272132 39905
LUCH 5A (SDCM/PRN 140)  
1 37951U 11074B   22302.34064928 -.00000039  00000+0  00000+0 0  9994
2 37951   5.3495  95.1400 0003236  97.7671 134.3742  1.00269178 39889
SES-5 (EGNOS/PRN 136)   
1 38652U 12036A   22301.40674324  .00000043  00000+0  00000+0 0  9999
2 38652   0.0612 291.0881 0001944 280.7334 336.3455  1.00270211 31174
GSAT-10 (GAGAN/PRN 128) 
1 38779U 12051B   22301.69866736 -.00000157  00000+0  00000+0 0  9994
2 38779   0.0306 120.7307 0003568 121.8991 128.9654  1.00271497 36801
LUCH 5B (SDCM/PRN 125)  
1 38977U 12061A   22301.17634797 -.00000124  00000+0  00000+0 0  9992
2 38977   7.5773  61.5909 0004603 115.1395 266.9762  1.00272063 36865
ASTRA 5B (EGNOS/PRN 123)
1 39617U 14011B   22302.01854984  .00000162  00000+0  00000+0 0  9998
2 39617   0.0615 307.8650 0003936 259.9847 227.7041  1.00270017 31560
LUCH 5V (SDCM/PRN 141)  
1 39727U 14023A   22301.86241208 -.00000260  00000+0  00000+0 0  9994
2 39727   1.8136  76.6781 0003107 155.6985 210.0183  1.00268031 31059
GSAT-15 (GAGAN/PRN 139) 
1 41028U 15065A   22301.97826937 -.00000250  00000+0  00000+0 0  9997
2 41028   0.0254 262.0967 0002901 275.8439 304.9576  1.00273039 25556
E 117 W B (WAAS/PRN 131)
1 41589U 16038B   22300.99791681 -.00000001  00000+0  00000+0 0  9992
2 41589   0.0149  99.5179 0000277 169.6844   9.4043  1.00272561 23354
SES-15 (WAAS/PRN 133)   
1 42709U 17026A   22302.32211662  .00000066  00000+0  00000+0 0  9990
2 42709   0.0300   5.2958 0000269 168.7690 210.4031  1.00267519 20880
QZS-2 (QZSS/PRN 184)    
1 42738U 17028A   22301.76855255 -.00000188  00000+0  00000+0 0  9999
2 42738  41.5568 262.2862 0744775 270.8287 278.4720  1.00250771 19835
QZS-3 (QZSS/PRN 189)    
1 42917U 17048A   22302.26578700 -.00000342  00000+0  00000+0 0  9995
2 42917   0.0804 134.5120 0002380  92.1443  33.6144  1.00267121 19066
QZS-4 (QZSS/PRN 185)    
1 42965U 17062A   22301.51240292 -.00000305  00000+0  00000+0 0  9992
2 42965  40.7358   0.4143 0750133 270.3728  89.2618  1.00269562 18504
GALAXY 30 (WAAS/PRN 135)
1 46114U 20056C   22302.32573715  .00000043  00000+0  00000+0 0  9996
2 46114   0.0168 261.2631 0002006 305.1079 183.5664  1.00271947  8098
